UWE-4                   
1 43880U 18111E   26087.77066150  .00038209  00000+0  91753-3 0  9999
2 43880  97.5850  12.7684 0005937 247.2202 112.8417 15.41240829398370
